start=new Date('2022-06-25T00:00:00.000Z').valueOf();
sats=[{"RCS_SIZE":"LARGE","EPOCH":"2022-06-24T14:01:43.722912","ARG_OF_PERICENTER":"60.1769","PERIAPSIS":"537.020","FILE":"3501798","INCLINATION":"53.2183","REV_AT_EPOCH":"3111","TLE_LINE1":"1 49755U 21115AH  22175.58453383  .00001335  00000-0  10204-3 0  9998","RA_OF_ASC_NODE":"107.9326","PERIOD":"95.438","MEAN_ELEMENT_THEORY":"SGP4","LAUNCH_DATE":"2021-12-02","TIME_SYSTEM":"UTC","MEAN_MOTION_DOT":"0.00001335","SITE":"AFETR","OBJECT_NAME":"STARLINK-3210","DECAY_DATE":null,"EPHEMERIS_TYPE":"0","OBJECT_TYPE":"PAYLOAD","ECCENTRICITY":"0.00039490","MEAN_MOTION":"15.08837810","NORAD_CAT_ID":"49755","MEAN_ANOMALY":"299.9615","COUNTRY_CODE":"US","APOAPSIS":"542.484","OBJECT_ID":"2021-115AH","ELEMENT_SET_NO":"999","BSTAR":"0.00010204000000","CLASSIFICATION_TYPE":"U","TLE_LINE2":"2 49755  53.2183 107.9326 0003949  60.1769 299.9615 15.08837810 31114","SEMIMAJOR_AXIS":"6917.887","MEAN_MOTION_DDOT":"0.0000000000000","GP_ID":"206789728","REF_FRAME":"TEME","CENTER_NAME":"EARTH"},{"CLASSIFICATION_TYPE":"U","APOAPSIS":"541.074","COUNTRY_CODE":"US","ELEMENT_SET_NO":"999","BSTAR":"0.00027663000000","OBJECT_ID":"2021-115AJ","MEAN_ANOMALY":"305.0015","NORAD_CAT_ID":"49756","CENTER_NAME":"EARTH","REF_FRAME":"TEME","SEMIMAJOR_AXIS":"6917.965","TLE_LINE2":"2 49756  53.2167  98.4307 0001798  55.1146 305.0015 15.08812430 32343","GP_ID":"206763525","MEAN_MOTION_DDOT":"0.0000000000000","TIME_SYSTEM":"UTC","LAUNCH_DATE":"2021-12-02","MEAN_MOTION_DOT":"0.00004114","REV_AT_EPOCH":"3234","INCLINATION":"53.2167","PERIOD":"95.439","RA_OF_ASC_NODE":"98.4307","MEAN_ELEMENT_THEORY":"SGP4","TLE_LINE1":"1 49756U 21115AJ  22175.47505523  .00004114  00000-0  27663-3 0  9996","PERIAPSIS":"538.586","ARG_OF_PERICENTER":"55.1146","FILE":"3501686","RCS_SIZE":"LARGE","EPOCH":"2022-06-24T11:24:04.771872","ECCENTRICITY":"0.00017980","MEAN_MOTION":"15.08812430","OBJECT_TYPE":"PAYLOAD","OBJECT_NAME":"STARLINK-3207","EPHEMERIS_TYPE":"0","DECAY_DATE":null,"SITE":"AFETR"},{"MEAN_MOTION":"15.08831784","ECCENTRICITY":"0.00020300","OBJECT_TYPE":"PAYLOAD","EPHEMERIS_TYPE":"0","DECAY_DATE":null,"OBJECT_NAME":"STARLINK-3197","SITE":"AFETR","MEAN_MOTION_DOT":"-0.00000769","TIME_SYSTEM":"UTC","LAUNCH_DATE":"2021-12-02","PERIOD":"95.438","MEAN_ELEMENT_THEORY":"SGP4","RA_OF_ASC_NODE":"97.2775","TLE_LINE1":"1 49757U 21115AK  22175.73265408 -.00000769  00000-0 -30214-4 0  9992","REV_AT_EPOCH":"3127","INCLINATION":"53.2159","FILE":"3501798","PERIAPSIS":"538.366","ARG_OF_PERICENTER":"58.1980","EPOCH":"2022-06-24T17:35:01.312512","RCS_SIZE":"LARGE","CENTER_NAME":"EARTH","REF_FRAME":"TEME","GP_ID":"206788726","MEAN_MOTION_DDOT":"0.0000000000000","SEMIMAJOR_AXIS":"6917.906","TLE_LINE2":"2 49757  53.2159  97.2775 0002030  58.1980 301.9209 15.08831784 31274","CLASSIFICATION_TYPE":"U","BSTAR":"-0.00003021400000","ELEMENT_SET_NO":"999","OBJECT_ID":"2021-115AK","APOAPSIS":"541.175","COUNTRY_CODE":"US","MEAN_ANOMALY":"301.9209","NORAD_CAT_ID":"49757"},{"MEAN_ANOMALY":"306.4130","NORAD_CAT_ID":"49758","CLASSIFICATION_TYPE":"U","OBJECT_ID":"2021-115AL","BSTAR":"0.00001423600000","ELEMENT_SET_NO":"999","COUNTRY_CODE":"US","APOAPSIS":"541.092","REF_FRAME":"TEME","MEAN_MOTION_DDOT":"0.0000000000000","GP_ID":"206731743","TLE_LINE2":"2 49758  53.2171  98.3994 0001917  53.7039 306.4130 15.08833460 32348","SEMIMAJOR_AXIS":"6917.900","CENTER_NAME":"EARTH","FILE":"3501401","ARG_OF_PERICENTER":"53.7039","PERIAPSIS":"538.439","EPOCH":"2022-06-24T11:34:40.358784","RCS_SIZE":"LARGE","MEAN_MOTION_DOT":"-0.00000062","TIME_SYSTEM":"UTC","LAUNCH_DATE":"2021-12-02","TLE_LINE1":"1 49758U 21115AL  22175.48241156 -.00000062  00000-0  14236-4 0  9990","PERIOD":"95.438","RA_OF_ASC_NODE":"98.3994","MEAN_ELEMENT_THEORY":"SGP4","INCLINATION":"53.2171","REV_AT_EPOCH":"3234","DECAY_DATE":null,"EPHEMERIS_TYPE":"0","OBJECT_NAME":"STARLINK-3194","SITE":"AFETR","MEAN_MOTION":"15.08833460","ECCENTRICITY":"0.00019170","OBJECT_TYPE":"PAYLOAD"},{"APOAPSIS":"541.370","COUNTRY_CODE":"US","BSTAR":"-0.00000822820000","ELEMENT_SET_NO":"999","OBJECT_ID":"2021-115AM","CLASSIFICATION_TYPE":"U","NORAD_CAT_ID":"49759","MEAN_ANOMALY":"303.9741","CENTER_NAME":"EARTH","SEMIMAJOR_AXIS":"6917.889","TLE_LINE2":"2 49759  53.2178  99.6415 0002336  56.1473 303.9741 15.08837177 31194","GP_ID":"206757568","MEAN_MOTION_DDOT":"0.0000000000000","REF_FRAME":"TEME","REV_AT_EPOCH":"3119","INCLINATION":"53.2178","PERIOD":"95.438","MEAN_ELEMENT_THEORY":"SGP4","RA_OF_ASC_NODE":"99.6415","TLE_LINE1":"1 49759U 21115AM  22175.20641055 -.00000419  00000-0 -82282-5 0  9997","LAUNCH_DATE":"2021-12-02","TIME_SYSTEM":"UTC","MEAN_MOTION_DOT":"-0.00000419","RCS_SIZE":"LARGE","EPOCH":"2022-06-24T04:57:13.871520","PERIAPSIS":"538.138","ARG_OF_PERICENTER":"56.1473","FILE":"3501501","OBJECT_TYPE":"PAYLOAD","ECCENTRICITY":"0.00023360","MEAN_MOTION":"15.08837177","SITE":"AFETR","OBJECT_NAME":"STARLINK-3204","EPHEMERIS_TYPE":"0","DECAY_DATE":null},{"APOAPSIS":"541.294","COUNTRY_CODE":"US","BSTAR":"0.00000066188000","ELEMENT_SET_NO":"999","OBJECT_ID":"2021-115AN","CLASSIFICATION_TYPE":"U","NORAD_CAT_ID":"49760","MEAN_ANOMALY":"304.7844","CENTER_NAME":"EARTH","SEMIMAJOR_AXIS":"6917.922","TLE_LINE2":"2 49760  53.2197  97.1667 0002178  55.3353 304.7844 15.08826231 31283","GP_ID":"206788977","MEAN_MOTION_DDOT":"0.0000000000000","REF_FRAME":"TEME","REV_AT_EPOCH":"3128","INCLINATION":"53.2197","PERIOD":"95.438","RA_OF_ASC_NODE":"97.1667","MEAN_ELEMENT_THEORY":"SGP4","TLE_LINE1":"1 49760U 21115AN  22175.75474409 -.00000278  00000-0  66188-6 0  9996","TIME_SYSTEM":"UTC","LAUNCH_DATE":"2021-12-02","MEAN_MOTION_DOT":"-0.00000278","RCS_SIZE":"LARGE","EPOCH":"2022-06-24T18:06:49.889376","PERIAPSIS":"538.281","ARG_OF_PERICENTER":"55.3353","FILE":"3501798","OBJECT_TYPE":"PAYLOAD","ECCENTRICITY":"0.00021780","MEAN_MOTION":"15.08826231","SITE":"AFETR","OBJECT_NAME":"STARLINK-3199","EPHEMERIS_TYPE":"0","DECAY_DATE":null},{"CENTER_NAME":"EARTH","REF_FRAME":"TEME","MEAN_MOTION_DDOT":"0.0000000000000","GP_ID":"206758066","TLE_LINE2":"2 49761  53.2191  98.4254 0002038  51.3684 308.7491 15.08840278 31236","SEMIMAJOR_AXIS":"6917.880","CLASSIFICATION_TYPE":"U","OBJECT_ID":"2021-115AP","BSTAR":"0.00005759900000","ELEMENT_SET_NO":"999","COUNTRY_CODE":"US","APOAPSIS":"541.154","MEAN_ANOMALY":"308.7491","NORAD_CAT_ID":"49761","MEAN_MOTION":"15.08840278","ECCENTRICITY":"0.00020380","OBJECT_TYPE":"PAYLOAD","DECAY_DATE":null,"EPHEMERIS_TYPE":"0","OBJECT_NAME":"STARLINK-3203","SITE":"AFETR","MEAN_MOTION_DOT":"0.00000629","LAUNCH_DATE":"2021-12-02","TIME_SYSTEM":"UTC","TLE_LINE1":"1 49761U 21115AP  22175.47872600  .00000629  00000-0  57599-4 0  9994","MEAN_ELEMENT_THEORY":"SGP4","PERIOD":"95.438","RA_OF_ASC_NODE":"98.4254","INCLINATION":"53.2191","REV_AT_EPOCH":"3123","FILE":"3501501","ARG_OF_PERICENTER":"51.3684","PERIAPSIS":"538.335","EPOCH":"2022-06-24T11:29:21.926400","RCS_SIZE":"LARGE"},{"CENTER_NAME":"EARTH","REF_FRAME":"TEME","SEMIMAJOR_AXIS":"6917.870","TLE_LINE2":"2 49762  53.2188  97.1509 0002613  54.5325 305.5911 15.08843337 31284","GP_ID":"206789478","MEAN_MOTION_DDOT":"0.0000000000000","CLASSIFICATION_TYPE":"U","APOAPSIS":"541.543","COUNTRY_CODE":"US","BSTAR":"-0.00004660100000","ELEMENT_SET_NO":"999","OBJECT_ID":"2021-115AQ","MEAN_ANOMALY":"305.5911","NORAD_CAT_ID":"49762","ECCENTRICITY":"0.00026130","MEAN_MOTION":"15.08843337","OBJECT_TYPE":"PAYLOAD","OBJECT_NAME":"STARLINK-3195","EPHEMERIS_TYPE":"0","DECAY_DATE":null,"SITE":"AFETR","TIME_SYSTEM":"UTC","LAUNCH_DATE":"2021-12-02","MEAN_MOTION_DOT":"-0.00001030","REV_AT_EPOCH":"3128","INCLINATION":"53.2188","RA_OF_ASC_NODE":"97.1509","PERIOD":"95.437","MEAN_ELEMENT_THEORY":"SGP4","TLE_LINE1":"1 49762U 21115AQ  22175.76210024 -.00001030  00000-0 -46601-4 0  9994","PERIAPSIS":"537.928","ARG_OF_PERICENTER":"54.5325","FILE":"3501798","RCS_SIZE":"LARGE","EPOCH":"2022-06-24T18:17:25.460736"},{"CENTER_NAME":"EARTH","MEAN_MOTION_DDOT":"0.0000000000000","GP_ID":"206789729","TLE_LINE2":"2 49763  53.2210  96.8815 0002076  54.0813 306.0372 15.08833041 31296","SEMIMAJOR_AXIS":"6917.902","REF_FRAME":"TEME","OBJECT_ID":"2021-115AR","ELEMENT_SET_NO":"999","BSTAR":"0.00008850400000","COUNTRY_CODE":"US","APOAPSIS":"541.203","CLASSIFICATION_TYPE":"U","NORAD_CAT_ID":"49763","MEAN_ANOMALY":"306.0372","OBJECT_TYPE":"PAYLOAD","MEAN_MOTION":"15.08833041","ECCENTRICITY":"0.00020760","SITE":"AFETR","DECAY_DATE":null,"EPHEMERIS_TYPE":"0","OBJECT_NAME":"STARLINK-3198","TLE_LINE1":"1 49763U 21115AR  22175.81729306  .00001120  00000-0  88504-4 0  9995","PERIOD":"95.438","MEAN_ELEMENT_THEORY":"SGP4","RA_OF_ASC_NODE":"96.8815","INCLINATION":"53.2210","REV_AT_EPOCH":"3129","MEAN_MOTION_DOT":"0.00001120","LAUNCH_DATE":"2021-12-02","TIME_SYSTEM":"UTC","EPOCH":"2022-06-24T19:36:54.120384","RCS_SIZE":"LARGE","FILE":"3501798","ARG_OF_PERICENTER":"54.0813","PERIAPSIS":"538.331"},{"REF_FRAME":"TEME","TLE_LINE2":"2 49764  53.2211  98.2982 0002614  52.2091 307.9137 15.08831472 32358","SEMIMAJOR_AXIS":"6917.906","MEAN_MOTION_DDOT":"0.0000000000000","GP_ID":"206732062","CENTER_NAME":"EARTH","MEAN_ANOMALY":"307.9137","NORAD_CAT_ID":"49764","CLASSIFICATION_TYPE":"U","COUNTRY_CODE":"US","APOAPSIS":"541.580","OBJECT_ID":"2021-115AS","BSTAR":"0.00000615900000","ELEMENT_SET_NO":"999","OBJECT_NAME":"STARLINK-3206","DECAY_DATE":null,"EPHEMERIS_TYPE":"0","SITE":"AFETR","ECCENTRICITY":"0.00026140","MEAN_MOTION":"15.08831472","OBJECT_TYPE":"PAYLOAD","ARG_OF_PERICENTER":"52.2091","PERIAPSIS":"537.963","FILE":"3501401","RCS_SIZE":"LARGE","EPOCH":"2022-06-24T12:06:28.343808","LAUNCH_DATE":"2021-12-02","TIME_SYSTEM":"UTC","MEAN_MOTION_DOT":"-0.00000190","INCLINATION":"53.2211","REV_AT_EPOCH":"3235","TLE_LINE1":"1 49764U 21115AS  22175.50449472 -.00000190  00000-0  61590-5 0  9999","MEAN_ELEMENT_THEORY":"SGP4","PERIOD":"95.438","RA_OF_ASC_NODE":"98.2982"}];
